[
    {
        "Altitude(m)": 604983.0528381935,
        "Argument of Periapsis(deg)": 0.0,
        "Eccentricity": 0.0,
        "Inclination(deg)": 60.0,
        "Latitude(deg)": -0.09253847580043419,
        "Longitude(deg)": 115.0839163276035,
        "Mean Anomaly(deg)": 180.0,
        "RAAN(deg)": 35.0,
        "Satellite Name": "Test1 165",
        "Satellite Number": 165,
        "Semi-Major Axis(m)": 6980739.136638005,
        "Time(s)": 0
    },
    {
        "Altitude(m)": 605055.3315356212,
        "Argument of Periapsis(deg)": 0.00010418945913296404,
        "Eccentricity": 0.0,
        "Inclination(deg)": 60.0,
        "Latitude(deg)": -0.6329485663337501,
        "Longitude(deg)": 115.35204080525831,
        "Mean Anomaly(deg)": 180.62010614546185,
        "RAAN(deg)": 34.99957995086025,
        "Satellite Name": "Test1 165",
        "Satellite Number": 165,
        "Semi-Major Axis(m)": 6980739.136638005,
        "Time(s)": 10
    }
]